[{"OBJECT_NAME":"ASTROCAST-0401","OBJECT_ID":"2023-001DF","EPOCH":"2026-03-09T17:04:53.382144","MEAN_MOTION":15.26258462,"ECCENTRICITY":0.00081423,"INCLINATION":97.5547,"RA_OF_ASC_NODE":160.5206,"ARG_OF_PERICENTER":188.4231,"MEAN_ANOMALY":171.6872,"EPHEMERIS_TYPE":0,"CLASSIFICATION_TYPE":"U","NORAD_CAT_ID":55110,"ELEMENT_SET_NO":999,"REV_AT_EPOCH":17602,"BSTAR":0.00037868349,"MEAN_MOTION_DOT":9.75e-5,"MEAN_MOTION_DDOT":0},{"OBJECT_NAME":"STARLINK-31312","OBJECT_ID":"2024-044A","EPOCH":"2026-03-09T07:36:03.695616","MEAN_MOTION":15.27574682,"ECCENTRICITY":0.00012325,"INCLINATION":43.0017,"RA_OF_ASC_NODE":58.4291,"ARG_OF_PERICENTER":266.5226,"MEAN_ANOMALY":93.5484,"EPHEMERIS_TYPE":0,"CLASSIFICATION_TYPE":"U","NORAD_CAT_ID":59152,"ELEMENT_SET_NO":999,"REV_AT_EPOCH":11412,"BSTAR":3.3039854e-5,"MEAN_MOTION_DOT":6.47e-6,"MEAN_MOTION_DDOT":0}]
